NORAD_CAT_ID,OBJECT_NAME,OBJECT_TYPE,EPOCH,MEAN_MOTION,ECCENTRICITY,INCLINATION,RA_OF_ASC_NODE,ARG_OF_PERICENTER,MEAN_ANOMALY,BSTAR,MEAN_MOTION_DOT,MEAN_MOTION_DDOT,TLE_LINE0,TLE_LINE1,TLE_LINE2,SEMIMAJOR_AXIS,PERIOD,APOGEE,PERIGEE,DECAYED
52264.0,STARLINK-3795,PAYLOAD,2023-11-28 01:41:35,15.08858005,0.0001686,53.2174,246.8961,114.0744,246.0425,0.00051473,7.917e-05,0.0,0 STARLINK-3795,1 52264U 22041D   23332.07054604  .00007917  00000-0  51473-3 0  9994,2 52264  53.2174 246.8961 0001686 114.0744 246.0425 15.08858005 89876,6917.825,95.436,540.857,538.524,0.0
52264.0,STARLINK-3795,PAYLOAD,2023-11-28 19:10:49,15.08857066,0.0001636,53.2175,243.6257,104.1022,256.0152,0.00086016,0.00013434,0.0,0 STARLINK-3795,1 52264U 22041D   23332.79918346  .00013434  00000-0  86016-3 0  9997,2 52264  53.2175 243.6257 0001636 104.1022 256.0152 15.08857066 89980,6917.828,95.436,540.825,538.561,0.0
52264.0,STARLINK-3795,PAYLOAD,2023-11-29 03:07:43,15.088731,0.0001515,53.2168,242.1357,103.8669,256.2492,0.00052838,8.139e-05,0.0,0 STARLINK-3795,1 52264U 22041D   23333.13036797  .00008139  00000-0  52838-3 0  9998,2 52264  53.2168 242.1357 0001515 103.8669 256.2492 15.08873100 90030,6917.779,95.435,540.692,538.596,0.0
52264.0,STARLINK-3795,PAYLOAD,2023-11-30 01:23:09,15.08829366,0.0001374,53.2162,237.977,105.9586,254.1557,-0.00044893,-7.423e-05,0.0,0 STARLINK-3795,1 52264U 22041D   23334.05774378 -.00007423  00000-0 -44893-3 0  9993,2 52264  53.2162 237.9770 0001374 105.9586 254.1557 15.08829366 90178,6917.913,95.438,540.728,538.827,0.0
52264.0,STARLINK-3795,PAYLOAD,2023-12-01 02:49:19,15.08841457,0.0001508,53.2165,233.2143,100.043,260.0732,0.00030099,4.506e-05,0.0,0 STARLINK-3795,1 52264U 22041D   23335.11758742  .00004506  00000-0  30099-3 0  9998,2 52264  53.2165 233.2143 0001508 100.0430 260.0732 15.08841457 90331,6917.876,95.437,540.784,538.698,0.0
52264.0,STARLINK-3795,PAYLOAD,2023-12-01 21:53:57,15.08847974,0.0001687,53.2169,229.643,81.382,278.7363,0.00056135,8.659e-05,0.0,0 STARLINK-3795,1 52264U 22041D   23335.91247409  .00008659  00000-0  56135-3 0  9991,2 52264  53.2169 229.6430 0001687  81.3820 278.7363 15.08847974 89249,6917.856,95.437,540.888,538.554,0.0
52264.0,STARLINK-3795,PAYLOAD,2023-12-02 20:09:21,15.08842469,0.000176,53.217,225.4824,114.5865,245.531,4.9271e-05,4.96e-06,0.0,0 STARLINK-3795,1 52264U 22041D   23336.83983142  .00000496  00000-0  49271-4 0  9999,2 52264  53.2170 225.4824 0001760 114.5865 245.5310 15.08842469 90590,6917.873,95.437,540.955,538.52,0.0
52264.0,STARLINK-3795,PAYLOAD,2023-12-02 21:44:44,15.08840186,0.0002132,53.2156,225.1852,132.2891,227.8282,-2.672e-05,-7.14e-06,0.0,0 STARLINK-3795,1 52264U 22041D   23336.90607022 -.00000714  00000-0 -26720-4 0  9996,2 52264  53.2156 225.1852 0002132 132.2891 227.8282 15.08840186 89393,6917.88,95.438,541.22,538.27,0.0
52264.0,STARLINK-3795,PAYLOAD,2023-12-03 02:30:54,15.08833593,0.0001408,53.2145,224.2959,97.164,262.9512,-0.00010016,-1.881e-05,0.0,0 STARLINK-3795,1 52264U 22041D   23337.10479539 -.00001881  00000-0 -10016-3 0  9995,2 52264  53.2145 224.2959 0001408  97.1640 262.9512 15.08833593 90634,6917.9,95.438,540.739,538.791,0.0
52264.0,STARLINK-3795,PAYLOAD,2023-12-03 20:00:08,15.08866007,0.0001412,53.2149,221.0221,118.6319,241.4816,-0.00098384,-0.00015923,0.0,0 STARLINK-3795,1 52264U 22041D   23337.83342772 -.00015923  00000-0 -98384-3 0  9999,2 52264  53.2149 221.0221 0001412 118.6319 241.4816 15.08866007 90749,6917.801,95.436,540.643,538.689,0.0
52264.0,STARLINK-3795,PAYLOAD,2023-12-03 23:10:55,15.08830869,0.0001481,53.2151,220.4286,112.1765,247.9384,5.5042e-05,5.88e-06,0.0,0 STARLINK-3795,1 52264U 22041D   23337.96592491  .00000588  00000-0  55042-4 0  9992,2 52264  53.2151 220.4286 0001481 112.1765 247.9384 15.08830869 90766,6917.908,95.438,540.798,538.749,0.0
52264.0,STARLINK-3795,PAYLOAD,2023-12-04 23:01:42,15.08843816,0.0001426,53.2152,215.9664,109.1009,251.0138,0.0003239,4.871e-05,0.0,0 STARLINK-3795,1 52264U 22041D   23338.95951973  .00004871  00000-0  32390-3 0  9995,2 52264  53.2152 215.9664 0001426 109.1009 251.0138 15.08843816 90918,6917.869,95.437,540.72,538.747,0.0
52264.0,STARLINK-3795,PAYLOAD,2023-12-06 02:03:16,15.08838653,0.0001287,53.2163,210.9096,113.8111,246.3016,9.3384e-05,1.199e-05,0.0,0 STARLINK-3795,1 52264U 22041D   23340.08560338  .00001199  00000-0  93384-4 0  9994,2 52264  53.2163 210.9096 0001287 113.8111 246.3016 15.08838653 91089,6917.885,95.438,540.64,538.859,0.0
52264.0,STARLINK-3795,PAYLOAD,2023-12-07 00:18:39,15.08837429,0.0001273,53.2155,206.7489,100.1965,259.9171,1.1076e-05,-1.12e-06,0.0,0 STARLINK-3795,1 52264U 22041D   23341.01296232 -.00000112  00000-0  11076-4 0  9990,2 52264  53.2155 206.7489 0001273 100.1965 259.9171 15.08837429 90014,6917.888,95.438,540.634,538.873,0.0
52264.0,STARLINK-3795,PAYLOAD,2023-12-08 00:09:26,15.08839388,0.0001285,53.2155,202.2875,102.6919,257.4217,5.7858e-05,6.33e-06,0.0,0 STARLINK-3795,1 52264U 22041D   23342.00656199  .00000633  00000-0  57858-4 0  9997,2 52264  53.2155 202.2875 0001285 102.6919 257.4217 15.08839388 91373,6917.882,95.438,540.636,538.858,0.0
52264.0,STARLINK-3795,PAYLOAD,2023-12-10 18:55:38,15.08842535,0.0001327,53.2158,189.7977,94.2468,265.8676,3.5248e-05,2.73e-06,0.0,0 STARLINK-3795,1 52264U 22041D   23344.78863673  .00000273  00000-0  35248-4 0  9990,2 52264  53.2158 189.7977 0001327  94.2468 265.8676 15.08842535 91796,6917.873,95.437,540.656,538.82,0.0
52264.0,STARLINK-3795,PAYLOAD,2023-12-10 20:31:01,15.0884138,0.0001313,53.2157,189.5005,94.2735,265.8408,2.4741e-05,1.06e-06,0.0,0 STARLINK-3795,1 52264U 22041D   23344.85487739  .00000106  00000-0  24741-4 0  9994,2 52264  53.2157 189.5005 0001313  94.2735 265.8408 15.08841380 90594,6917.876,95.437,540.649,538.833,0.0
52264.0,STARLINK-3795,PAYLOAD,2023-12-11 18:46:25,15.08834807,0.0001489,53.2162,185.3387,99.408,260.7081,1.5127e-05,-4.7e-07,0.0,0 STARLINK-3795,1 52264U 22041D   23345.78224161 -.00000047  00000-0  15127-4 0  9998,2 52264  53.2162 185.3387 0001489  99.4080 260.7081 15.08834807 91948,6917.896,95.438,540.791,538.731,0.0
52264.0,STARLINK-3795,PAYLOAD,2023-12-12 18:37:12,15.08836044,0.0001528,53.2163,180.88,108.2601,251.8557,1.9381e-05,2e-07,0.0,0 STARLINK-3795,1 52264U 22041D   23346.77584285  .00000020  00000-0  19381-4 0  9990,2 52264  53.2163 180.8800 0001528 108.2601 251.8557 15.08836044 90887,6917.892,95.438,540.815,538.7,0.0
52264.0,STARLINK-3795,PAYLOAD,2023-12-13 18:27:59,15.08837522,0.0001472,53.2162,176.4195,107.8429,252.2724,3.7292e-05,3.06e-06,0.0,0 STARLINK-3795,1 52264U 22041D   23347.76944318  .00000306  00000-0  37292-4 0  9995,2 52264  53.2162 176.4195 0001472 107.8429 252.2724 15.08837522 92240,6917.888,95.438,540.771,538.735,0.0
52264.0,STARLINK-3795,PAYLOAD,2023-12-14 19:54:10,15.08837929,0.0001305,53.2153,171.6625,99.7113,260.4027,2.2344e-05,6.8e-07,0.0,0 STARLINK-3795,1 52264U 22041D   23348.82928609  .00000068  00000-0  22344-4 0  9995,2 52264  53.2153 171.6625 0001305  99.7113 260.4027 15.08837929 92405,6917.887,95.438,540.655,538.849,0.0
52264.0,STARLINK-3795,PAYLOAD,2023-12-15 19:44:57,15.08837669,0.0001382,53.2157,167.1989,86.425,273.69,3.6395e-05,2.91e-06,0.0,0 STARLINK-3795,1 52264U 22041D   23349.82288769  .00000291  00000-0  36395-4 0  9991,2 52264  53.2157 167.1989 0001382  86.4250 273.6900 15.08837669 91341,6917.888,95.438,540.709,538.796,0.0
52264.0,STARLINK-3795,PAYLOAD,2023-12-16 18:00:21,15.0884157,0.000141,53.2157,163.036,83.0811,277.0342,5.8799e-05,6.48e-06,0.0,0 STARLINK-3795,1 52264U 22041D   23350.75024531  .00000648  00000-0  58799-4 0  9998,2 52264  53.2157 163.0360 0001410  83.0811 277.0342 15.08841570 92690,6917.876,95.437,540.716,538.765,0.0
52264.0,STARLINK-3795,PAYLOAD,2023-12-17 14:40:21,15.08841564,0.0001363,53.2156,159.1699,88.3815,271.7333,3.9828e-05,3.46e-06,0.0,0 STARLINK-3795,1 52264U 22041D   23351.61136492  .00000346  00000-0  39828-4 0  9991,2 52264  53.2156 159.1699 0001363  88.3815 271.7333 15.08841564 91614,6917.876,95.437,540.684,538.798,0.0
52264.0,STARLINK-3795,PAYLOAD,2023-12-17 17:51:08,15.08842639,0.0001375,53.2154,158.5754,87.788,272.3269,4.8816e-05,4.89e-06,0.0,0 STARLINK-3795,1 52264U 22041D   23351.74384384  .00000489  00000-0  48816-4 0  9995,2 52264  53.2154 158.5754 0001375  87.7880 272.3269 15.08842639 91636,6917.872,95.437,540.689,538.786,0.0
52264.0,STARLINK-3795,PAYLOAD,2023-12-18 14:31:08,15.08841993,0.0001382,53.2155,154.7086,97.1483,262.9666,2.0372e-05,3.6e-07,0.0,0 STARLINK-3795,1 52264U 22041D   23352.60496329  .00000036  00000-0  20372-4 0  9999,2 52264  53.2155 154.7086 0001382  97.1483 262.9666 15.08841993 91767,6917.874,95.437,540.695,538.783,0.0
52264.0,STARLINK-3795,PAYLOAD,2023-12-18 17:41:55,15.08842673,0.0001376,53.2159,154.1132,97.202,262.9128,2.1064e-05,4.7e-07,0.0,0 STARLINK-3795,1 52264U 22041D   23352.73744249  .00000047  00000-0  21064-4 0  9991,2 52264  53.2159 154.1132 0001376  97.2020 262.9128 15.08842673 92993,6917.872,95.437,540.689,538.785,0.0
52264.0,STARLINK-3795,PAYLOAD,2023-12-19 14:21:56,15.08838301,0.0001609,53.2169,150.2517,116.3981,243.7176,-2.6661e-06,-3.3e-06,0.0,0 STARLINK-3795,1 52264U 22041D   23353.59856544 -.00000330  00000-0 -26661-5 0  9994,2 52264  53.2169 150.2517 0001609 116.3981 243.7176 15.08838301 91910,6917.886,95.438,540.864,538.637,0.0
52264.0,STARLINK-3795,PAYLOAD,2023-12-19 15:57:19,15.08838877,0.0001619,53.2171,149.9551,115.9267,244.1892,2.4819e-06,-2.49e-06,0.0,0 STARLINK-3795,1 52264U 22041D   23353.66480501 -.00000249  00000-0  24819-5 0  9999,2 52264  53.2171 149.9551 0001619 115.9267 244.1892 15.08838877 93133,6917.884,95.438,540.869,538.629,0.0
52264.0,STARLINK-3795,PAYLOAD,2023-12-20 15:48:06,15.08836266,0.0001322,53.2171,145.4961,105.8442,254.2696,-3.9791e-05,-9.21e-06,0.0,0 STARLINK-3795,1 52264U 22041D   23354.65841094 -.00000921  00000-0 -39791-4 0  9999,2 52264  53.2171 145.4961 0001322 105.8442 254.2696 15.08836266 92079,6917.892,95.438,540.671,538.842,0.0
